1 26958U 01049B 26162.29546477 .00002892 00000+0 18861-3 0 9992 
2 26958 97.9605 170.6220 0055768 141.6291 218.8924 15.07473830342732 
1 27844U 03031E 26161.99583856 .00000244 00000+0 12458-3 0 9993 
2 27844 98.6735 170.6324 0009111 196.3678 163.7208 14.24331910190791 
1 27848U 03031J 26161.55949117 .00000214 00000+0 11309-3 0 9996 
2 27848 98.6767 169.9197 0008636 217.5980 142.4596 14.23617305190431 
1 35684U 09041D 26162.18819018 .00000562 00000+0 73667-4 0 9998 
2 35684 98.1411 237.3890 0042817 342.8192 17.1570 14.83871257910473 
1 35686U 09041F 26162.14705922 .00001154 00000+0 10421-3 0 9990 
2 35686 98.2052 315.0821 0062761 87.1636 273.6765 14.96222440915475 
1 36037U 09059B 26162.18822088 .00000155 00000+0 46637-4 0 9996 
2 36037 98.2450 345.6243 0012133 302.5858 57.4167 14.54859776880650 
1 37792U 11044E 26162.06203508 .00000972 00000+0 12985-3 0 9994 
2 37792 98.2454 94.9289 0052830 23.8561 336.5082 14.81062436797887 
1 37793U 11044F 26161.58639097 .00000630 00000+0 96098-4 0 9996 
2 37793 98.2371 71.9511 0044412 106.5122 14.7860 14.76905986796178 
1 39159U 13021A 26161.93409389 .00000063 00000+0 45482-4 0 9990 
2 39159 98.3581 140.8495 0004880 138.3417 221.8135 14.23595672680225 
1 39416U 13066A 26162.18333683 .00000726 00000+0 77374-4 0 9997 
2 39416 97.7707 115.4897 0034569 229.6745 130.1452 14.91551199680330 
1 39425U 13066K 26162.08792428 .00000874 00000+0 10067-3 0 9991 
2 39425 97.8220 109.6410 0044691 307.2502 52.4642 14.87640786678765 
1 40014U 14033E 26162.29214273 .00005602 00000+0 29682-3 0 9999 
2 40014 98.0421 254.4963 0027635 198.3866 161.6368 15.15521802654941 
1 40016U 14033G 26161.96454535 .00000611 00000+0 87014-4 0 9990 
2 40016 97.7575 308.3149 0046244 93.6057 267.0446 14.79536193645159 
1 40018U 14033J 26161.89527587 .00000560 00000+0 89789-4 0 9996 
2 40018 97.9052 295.2479 0065266 219.5914 140.0519 14.74206025642633 
1 40019U 14033K 26162.07221382 .00000346 00000+0 62475-4 0 9997 
2 40019 97.9642 289.1683 0077524 293.7083 65.6004 14.70877121641355 
1 40076U 14037H 26161.94286632 .00006952 00000+0 39579-3 0 9995 
2 40076 98.3806 153.5367 0004602 294.5691 65.5058 15.13200180647288 
1 42829U 17042E 26162.19870278 .00003039 00000+0 21801-3 0 9997 
2 42829 97.4261 320.0853 0018785 113.2228 247.0979 15.04916875485804 
1 42831U 17042G 26162.31957682 .00003348 00000+0 26502-3 0 9995 
2 42831 97.4660 318.0797 0019275 140.7203 219.5424 15.01107587485579 
1 43765U 18099H 26162.11302195 .00005626 00000+0 22779-3 0 9999 
2 43765 97.3922 214.4281 0033337 308.3691 51.4553 15.24571307412173 
1 43794U 18099AN 26162.12733363 .00005171 00000+0 22169-3 0 9995 
2 43794 97.3971 213.8698 0030903 327.1777 32.7540 15.22759353412113 
1 43799U 18099AT 26162.10328366 .00006945 00000+0 25125-3 0 9996 
2 43799 97.3897 215.3009 0038991 308.2574 51.5159 15.28017972412988 
1 46495U 20068K 26162.25849645 .00006276 00000+0 22076-3 0 9994 
2 46495 97.8851 164.9624 0008555 332.6699 27.4089 15.29713226314456 
1 47502U 21006CT 26162.08822738 .00005846 00000+0 17668-3 0 9995 
2 47502 97.2286 206.5199 0005978 208.1994 151.8927 15.34589585298564 
1 47505U 21006CW 26162.09077966 .00005807 00000+0 17547-3 0 9997 
2 47505 97.2328 207.1966 0005415 211.7718 148.3200 15.34604467298565 
1 47508U 21006CZ 26162.08664607 .00006737 00000+0 20264-3 0 9996 
2 47508 97.2199 205.5340 0005968 210.0316 150.0586 15.34683410298563 
1 48931U 21059BE 26162.07539056 .00044387 00000+0 38418-3 0 9996 
2 48931 97.6672 358.2085 0003643 0.9145 359.2122 15.69054939276897 
1 48948U 21059BX 26162.07507457 .00040731 00000+0 35281-3 0 9998 
2 48948 97.6790 3.8837 0004012 1.3496 358.7775 15.69051494276890 
1 48957U 21059CG 26162.07497230 .00043179 00000+0 37375-3 0 9990 
2 48957 97.6732 1.0931 0004108 2.6527 357.4755 15.69056833276892 
1 52754U 22057Y 26162.17420258 .00016803 00000+0 28898-3 0 9990 
2 52754 97.6585 321.4554 0005335 100.7026 259.4827 15.51178611225418 
1 52756U 22057AA 26162.23856350 .00016693 00000+0 28704-3 0 9998 
2 52756 97.6592 319.8726 0005986 93.6303 266.5633 15.51181302225426 
